{
  "type": "FeatureCollection",
  "features": [
    {
      "type": "Feature",
      "properties": {
        "norad_id": 40797,
        "name": "COSMOS 2251 DEB",
        "group": "cosmos-2251-debris",
        "lat": -17.644124731842442,
        "lon": -61.89051815373065,
        "alt_km": 586.0683044905263,
        "timestamp": "2025-12-04T07:39:36.529879+00:00",
        "meta_object_name": "COSMOS 2251 DEB",
        "meta_object_id": "1993-036BWA",
        "meta_epoch": "2025-11-19T18:43:16.602528",
        "meta_mean_motion": 15.10509474,
        "meta_eccentricity": 0.00703947,
        "meta_inclination": 73.92,
        "meta_ra_of_asc_node": 143.0892,
        "meta_arg_of_pericenter": 60.6639,
        "meta_mean_anomaly": 300.156,
        "meta_ephemeris_type": 0,
        "meta_classification_type": "U",
        "meta_norad_cat_id": 40797,
        "meta_element_set_no": 999,
        "meta_rev_at_epoch": 64297,
        "meta_bstar": 0.00072810385,
        "meta_mean_motion_dot": 0.00012707,
        "meta_mean_motion_ddot": 0,
        "tle_line1": "1 40797U 93036BWA 25323.78005327  .00012707  00000+0  72810-3 0  9992",
        "tle_line2": "2 40797  73.9200 143.0892 0070394  60.6639 300.1560 15.10509474642979"
      },
      "geometry": {
        "type": "Point",
        "coordinates": [
          -61.89051815373065,
          -17.644124731842442
        ]
      }
    },
    {
      "type": "Feature",
      "properties": {
        "norad_id": 40799,
        "name": "COSMOS 2251 DEB",
        "group": "cosmos-2251-debris",
        "lat": -67.77235028935495,
        "lon": 70.62467159170126,
        "alt_km": 560.4499423323341,
        "timestamp": "2025-12-04T07:39:36.529888+00:00",
        "meta_object_name": "COSMOS 2251 DEB",
        "meta_object_id": "1993-036BWC",
        "meta_epoch": "2025-12-03T15:56:34.043424",
        "meta_mean_motion": 14.96530915,
        "meta_eccentricity": 0.0118644,
        "meta_inclination": 73.9247,
        "meta_ra_of_asc_node": 116.8388,
        "meta_arg_of_pericenter": 0.7827,
        "meta_mean_anomaly": 359.3519,
        "meta_ephemeris_type": 0,
        "meta_classification_type": "U",
        "meta_norad_cat_id": 40799,
        "meta_element_set_no": 999,
        "meta_rev_at_epoch": 49841,
        "meta_bstar": 0.00050356325,
        "meta_mean_motion_dot": 6.569e-05,
        "meta_mean_motion_ddot": 0,
        "tle_line1": "1 40799U 93036BWC 25337.66428291  .00006569  00000+0  50356-3 0  9995",
        "tle_line2": "2 40799  73.9247 116.8388 0118644   0.7827 359.3519 14.96530915498410"
      },
      "geometry": {
        "type": "Point",
        "coordinates": [
          70.62467159170126,
          -67.77235028935495
        ]
      }
    },
    {
      "type": "Feature",
      "properties": {
        "norad_id": 40802,
        "name": "COSMOS 2251 DEB",
        "group": "cosmos-2251-debris",
        "lat": -10.032950122841939,
        "lon": -7.566570506487234,
        "alt_km": 632.8707732419452,
        "timestamp": "2025-12-04T07:39:36.529898+00:00",
        "meta_object_name": "COSMOS 2251 DEB",
        "meta_object_id": "1993-036BWF",
        "meta_epoch": "2025-12-03T19:25:10.185888",
        "meta_mean_motion": 14.77466187,
        "meta_eccentricity": 0.00634015,
        "meta_inclination": 74.0391,
        "meta_ra_of_asc_node": 170.5311,
        "meta_arg_of_pericenter": 271.0455,
        "meta_mean_anomaly": 88.3457,
        "meta_ephemeris_type": 0,
        "meta_classification_type": "U",
        "meta_norad_cat_id": 40802,
        "meta_element_set_no": 999,
        "meta_rev_at_epoch": 64277,
        "meta_bstar": 0.00093875569,
        "meta_mean_motion_dot": 6.888e-05,
        "meta_mean_motion_ddot": 0,
        "tle_line1": "1 40802U 93036BWF 25337.80914567  .00006888  00000+0  93876-3 0  9990",
        "tle_line2": "2 40802  74.0391 170.5311 0063401 271.0455  88.3457 14.77466187642778"
      },
      "geometry": {
        "type": "Point",
        "coordinates": [
          -7.566570506487234,
          -10.032950122841939
        ]
      }
    },
    {
      "type": "Feature",
      "properties": {
        "norad_id": 40803,
        "name": "COSMOS 2251 DEB",
        "group": "cosmos-2251-debris",
        "lat": 73.7933165737372,
        "lon": 167.2555012259758,
        "alt_km": 736.3199349012375,
        "timestamp": "2025-12-04T07:39:36.529907+00:00",
        "meta_object_name": "COSMOS 2251 DEB",
        "meta_object_id": "1993-036BWG",
        "meta_epoch": "2025-11-28T13:57:57.324672",
        "meta_mean_motion": 14.51758448,
        "meta_eccentricity": 0.00344541,
        "meta_inclination": 74.0129,
        "meta_ra_of_asc_node": 78.5975,
        "meta_arg_of_pericenter": 297.2945,
        "meta_mean_anomaly": 62.4709,
        "meta_ephemeris_type": 0,
        "meta_classification_type": "U",
        "meta_norad_cat_id": 40803,
        "meta_element_set_no": 999,
        "meta_rev_at_epoch": 58547,
        "meta_bstar": 0.00037309243,
        "meta_mean_motion_dot": 1.482e-05,
        "meta_mean_motion_ddot": 0,
        "tle_line1": "1 40803U 93036BWG 25332.58191348  .00001482  00000+0  37309-3 0  9999",
        "tle_line2": "2 40803  74.0129  78.5975 0034454 297.2945  62.4709 14.51758448585473"
      },
      "geometry": {
        "type": "Point",
        "coordinates": [
          167.2555012259758,
          73.7933165737372
        ]
      }
    },
    {
      "type": "Feature",
      "properties": {
        "norad_id": 40808,
        "name": "COSMOS 2251 DEB",
        "group": "cosmos-2251-debris",
        "lat": -69.21405236912747,
        "lon": 30.65408201983848,
        "alt_km": 673.0434496894495,
        "timestamp": "2025-12-04T07:39:36.529916+00:00",
        "meta_object_name": "COSMOS 2251 DEB",
        "meta_object_id": "1993-036BWM",
        "meta_epoch": "2025-12-03T19:07:41.637216",
        "meta_mean_motion": 14.6721279,
        "meta_eccentricity": 0.00101252,
        "meta_inclination": 74.0401,
        "meta_ra_of_asc_node": 162.7296,
        "meta_arg_of_pericenter": 199.8657,
        "meta_mean_anomaly": 179.6058,
        "meta_ephemeris_type": 0,
        "meta_classification_type": "U",
        "meta_norad_cat_id": 40808,
        "meta_element_set_no": 999,
        "meta_rev_at_epoch": 63488,
        "meta_bstar": 0.0022517576,
        "meta_mean_motion_dot": 0.00012683,
        "meta_mean_motion_ddot": 0,
        "tle_line1": "1 40808U 93036BWM 25337.79700969  .00012683  00000+0  22518-2 0  9997",
        "tle_line2": "2 40808  74.0401 162.7296 0010125 199.8657 179.6058 14.67212790634889"
      },
      "geometry": {
        "type": "Point",
        "coordinates": [
          30.65408201983848,
          -69.21405236912747
        ]
      }
    },
    {
      "type": "Feature",
      "properties": {
        "norad_id": 40810,
        "name": "COSMOS 2251 DEB",
        "group": "cosmos-2251-debris",
        "lat": 69.38050499091858,
        "lon": 140.30622480735636,
        "alt_km": 703.437080278487,
        "timestamp": "2025-12-04T07:39:36.529925+00:00",
        "meta_object_name": "COSMOS 2251 DEB",
        "meta_object_id": "1993-036BWP",
        "meta_epoch": "2025-12-02T07:34:18.151104",
        "meta_mean_motion": 14.58589191,
        "meta_eccentricity": 0.00187807,
        "meta_inclination": 74.0355,
        "meta_ra_of_asc_node": 94.5842,
        "meta_arg_of_pericenter": 246.5096,
        "meta_mean_anomaly": 113.4096,
        "meta_ephemeris_type": 0,
        "meta_classification_type": "U",
        "meta_norad_cat_id": 40810,
        "meta_element_set_no": 999,
        "meta_rev_at_epoch": 61531,
        "meta_bstar": 0.001131408,
        "meta_mean_motion_dot": 5.252e-05,
        "meta_mean_motion_ddot": 0,
        "tle_line1": "1 40810U 93036BWP 25336.31548786  .00005252  00000+0  11314-2 0  9990",
        "tle_line2": "2 40810  74.0355  94.5842 0018780 246.5096 113.4096 14.58589191615318"
      },
      "geometry": {
        "type": "Point",
        "coordinates": [
          140.30622480735636,
          69.38050499091858
        ]
      }
    },
    {
      "type": "Feature",
      "properties": {
        "norad_id": 46271,
        "name": "COSMOS 2251 DEB",
        "group": "cosmos-2251-debris",
        "lat": 3.7609093087271734,
        "lon": -87.02434419727105,
        "alt_km": 701.4619783541284,
        "timestamp": "2025-12-04T07:39:36.529934+00:00",
        "meta_object_name": "COSMOS 2251 DEB",
        "meta_object_id": "1993-036BWT",
        "meta_epoch": "2025-12-02T01:54:44.684640",
        "meta_mean_motion": 14.51374966,
        "meta_eccentricity": 0.00407046,
        "meta_inclination": 74.046,
        "meta_ra_of_asc_node": 98.2636,
        "meta_arg_of_pericenter": 221.9387,
        "meta_mean_anomaly": 137.8656,
        "meta_ephemeris_type": 0,
        "meta_classification_type": "U",
        "meta_norad_cat_id": 46271,
        "meta_element_set_no": 999,
        "meta_rev_at_epoch": 84487,
        "meta_bstar": 0.0004698569,
        "meta_mean_motion_dot": 1.865e-05,
        "meta_mean_motion_ddot": 0,
        "tle_line1": "1 46271U 93036BWT 25336.07968385  .00001865  00000+0  46986-3 0  9991",
        "tle_line2": "2 46271  74.0460  98.2636 0040704 221.9387 137.8656 14.51374966844877"
      },
      "geometry": {
        "type": "Point",
        "coordinates": [
          -87.02434419727105,
          3.7609093087271734
        ]
      }
    }
  ]
}